NORAD_CAT_ID,OBJECT_NAME,OBJECT_TYPE,EPOCH,MEAN_MOTION,ECCENTRICITY,INCLINATION,RA_OF_ASC_NODE,ARG_OF_PERICENTER,MEAN_ANOMALY,BSTAR,MEAN_MOTION_DOT,MEAN_MOTION_DDOT,TLE_LINE0,TLE_LINE1,TLE_LINE2,SEMIMAJOR_AXIS,PERIOD,APOGEE,PERIGEE,DECAYED
52853.0,STARLINK-4189,PAYLOAD,2022-08-19 14:00:01,15.49416141,0.0001379,53.2173,94.1951,55.035,51.4691,-0.0208789999999999,-0.01058298,0.0,0 STARLINK-4189,1 52853U 22062Z   22231.58334491 -.01058298  00000-0 -20879-1 0  9994,2 52853  53.2173  94.1951 0001379  55.0350  51.4691 15.49416141  1309,6796.57,92.938,419.372,417.49800000000016,0.0
52853.0,STARLINK-4189,PAYLOAD,2022-08-19 16:00:00,15.49225971,0.0001416,53.2175,93.7971,61.9047,149.6565,-0.020991,-0.01056963,0.0,0 STARLINK-4189,1 52853U 22062Z   22231.66667824 -.01056963  00000-0 -20991-1 0  9994,2 52853  53.2175  93.7971 0001416  61.9047 149.6565 15.49225971 10421,6797.126,92.95,419.954,418.029,0.0
52853.0,STARLINK-4189,PAYLOAD,2022-08-19 22:00:00,15.48656555,0.0001649,53.2172,92.6038,46.8707,119.5197,-0.021436,-0.01057825,0.0,0 STARLINK-4189,1 52853U 22062Z   22231.91667824 -.01057825  00000-0 -21436-1 0  9995,2 52853  53.2172  92.6038 0001649  46.8707 119.5197 15.48656555  1302,6798.792,92.984,421.778,419.536,0.0
52853.0,STARLINK-4189,PAYLOAD,2022-08-20 14:00:01,15.4713656,0.0001351,53.2175,89.4206,56.563,226.8655,-0.022558,-0.01055476,0.0,0 STARLINK-4189,1 52853U 22062Z   22232.58334491 -.01055476  00000-0 -22558-1 0  9996,2 52853  53.2175  89.4206 0001351  56.5630 226.8655 15.47136560  1308,6803.244000000002,93.075,426.029,424.19,0.0
52853.0,STARLINK-4189,PAYLOAD,2022-08-20 22:00:00,15.46379656,0.0001406,53.2174,87.8348,47.7658,292.8102,-0.023272,-0.01060101,0.0,0 STARLINK-4189,1 52853U 22062Z   22232.91667824 -.01060101  00000-0 -23272-1 0  9997,2 52853  53.2174  87.8348 0001406  47.7658 292.8102 15.46379656  1303,6805.464,93.121,428.286,426.372,0.0
52853.0,STARLINK-4189,PAYLOAD,2022-08-21 06:00:00,15.45619213,0.0001272,53.2174,86.2478,51.8789,344.9349,-0.023852,-0.01058404,0.0,0 STARLINK-4189,1 52853U 22062Z   22233.25001157 -.01058404  00000-0 -23852-1 0  9993,2 52853  53.2174  86.2478 0001272  51.8789 344.9349 15.45619213 10668,6807.696,93.167,430.427,428.695,0.0
52853.0,STARLINK-4189,PAYLOAD,2022-08-21 14:00:01,15.44857926,0.0001518,53.2177,84.6625,45.9778,46.1611,-0.024394,-0.01054855,0.0,0 STARLINK-4189,1 52853U 22062Z   22233.58334491 -.01054855  00000-0 -24394-1 0  9997,2 52853  53.2177  84.6625 0001518  45.9778  46.1611 15.44857926  1300,6809.933000000001,93.212,432.831,430.764,0.0
52853.0,STARLINK-4189,PAYLOAD,2022-08-21 22:00:00,15.44099757,0.0001665999999999,53.2174,83.0822,46.1234,100.4252,-0.02509,-0.01056952,0.0,0 STARLINK-4189,1 52853U 22062Z   22233.91667824 -.01056952  00000-0 -25090-1 0  9997,2 52853  53.2174  83.0822 0001666  46.1234 100.4252 15.44099757  1308,6812.1619999999975,93.258,435.161,432.892,0.0
52853.0,STARLINK-4189,PAYLOAD,2022-08-22 06:00:00,15.43341161,0.0001450999999999,53.2173,81.5004,58.7911,141.2569,-0.025795,-0.01058669,0.0,0 STARLINK-4189,1 52853U 22062Z   22234.25001157 -.01058669  00000-0 -25795-1 0  9995,2 52853  53.2173  81.5004 0001451  58.7911 141.2569 15.43341161 10824,6814.394,93.304,437.247,435.27,0.0
52853.0,STARLINK-4189,PAYLOAD,2022-08-22 12:00:00,15.42770487,0.0001517,53.2173,80.3152,51.7301,97.8439,-0.026266,-0.01072293,0.0,0 STARLINK-4189,1 52853U 22062Z   22234.50001157 -.01072293  00000-0 -26266-1 0  9996,2 52853  53.2173  80.3152 0001517  51.7301  97.8439 15.42770487  1305,6816.074000000001,93.339,438.973,436.905,0.0
52853.0,STARLINK-4189,PAYLOAD,2022-08-22 22:00:00,15.41821394,0.0001369,53.2174,78.3459,56.1149,248.1917,-0.0271019999999999,-0.01071594,0.0,0 STARLINK-4189,1 52853U 22062Z   22234.91667824 -.01071594  00000-0 -27102-1 0  9993,2 52853  53.2174  78.3459 0001369  56.1149 248.1917 15.41821394  1302,6818.871,93.396,441.669,439.802,0.0
52853.0,STARLINK-4189,PAYLOAD,2022-08-23 06:00:00,15.41062516,0.0001234,53.2173,76.7694,55.3414,299.7269,-0.027843,-0.01073075,0.0,0 STARLINK-4189,1 52853U 22062Z   22235.25001157 -.01073075  00000-0 -27843-1 0  9990,2 52853  53.2173  76.7694 0001234  55.3414 299.7269 15.41062516 10979,6821.109,93.442,443.816,442.132,0.0
52853.0,STARLINK-4189,PAYLOAD,2022-08-23 14:00:01,15.40300392,0.0001404,53.2174,75.1953,48.1908,356.7267,-0.028408,-0.01067863,0.0,0 STARLINK-4189,1 52853U 22062Z   22235.58334491 -.01067863  00000-0 -28408-1 0  9992,2 52853  53.2174  75.1953 0001404  48.1908 356.7267 15.40300392  1303,6823.359,93.488,446.182,444.266,0.0
52853.0,STARLINK-4189,PAYLOAD,2022-08-23 22:00:01,15.39542633,0.0001571999999999,53.2174,73.6258,45.9757,47.9396,-0.029225,-0.0107106,0.0,0 STARLINK-4189,1 52853U 22062Z   22235.91668981 -.01071060  00000-0 -29225-1 0  9995,2 52853  53.2174  73.6258 0001572  45.9757  47.9396 15.39542633  1303,6825.598000000001,93.534,448.536,446.39,0.0
52853.0,STARLINK-4189,PAYLOAD,2022-08-24 06:00:00,15.38782881,0.000147,53.2174,72.0547,54.4557,87.4192,-0.029948,-0.01070402,0.0,0 STARLINK-4189,1 52853U 22062Z   22236.25001157 -.01070402  00000-0 -29948-1 0  9990,2 52853  53.2174  72.0547 0001470  54.4557  87.4192 15.38782881 11121,6827.844,93.58,450.713,448.706,0.0
52853.0,STARLINK-4189,PAYLOAD,2022-08-24 14:00:01,15.38022115,0.0001456,53.2175,70.4863,63.9974,124.988,-0.030618,-0.01067584,0.0,0 STARLINK-4189,1 52853U 22062Z   22236.58334491 -.01067584  00000-0 -30618-1 0  9999,2 52853  53.2175  70.4863 0001456  63.9974 124.9880 15.38022115  1304,6830.096,93.627,452.955,450.966,0.0
52853.0,STARLINK-4189,PAYLOAD,2022-08-24 22:00:00,15.37262018,0.0001496,53.2175,68.922,58.3851,176.797,-0.031354,-0.01066526,0.0,0 STARLINK-4189,1 52853U 22062Z   22236.91667824 -.01066526  00000-0 -31354-1 0  9998,2 52853  53.2175  68.9220 0001496  58.3851 176.7970 15.37262018  1301,6832.347,93.673,455.234,453.19,0.0
52853.0,STARLINK-4189,PAYLOAD,2022-08-25 06:00:02,15.3650555,0.000144,53.2175,67.3561,51.1635,229.3675,-0.032327,-0.01072376,0.0,0 STARLINK-4189,1 52853U 22062Z   22237.25002315 -.01072376  00000-0 -32327-1 0  9995,2 52853  53.2175  67.3561 0001440  51.1635 229.3675 15.36505550 11287,6834.589,93.719,457.43800000000016,455.47,0.0
52853.0,STARLINK-4189,PAYLOAD,2022-08-25 14:00:01,15.35744349,0.0001408,53.2176,65.7933,50.1345,274.705,-0.032998,-0.01068348,0.0,0 STARLINK-4189,1 52853U 22062Z   22237.58334491 -.01068348  00000-0 -32998-1 0  9992,2 52853  53.2176  65.7933 0001408  50.1345 274.7050 15.35744349  1307,6836.847,93.766,459.675,457.75,0.0
52853.0,STARLINK-4189,PAYLOAD,2022-08-25 22:00:00,15.34984655,0.0001468,53.2175,64.2344,45.0884,323.2097,-0.033829,-0.01068765,0.0,0 STARLINK-4189,1 52853U 22062Z   22237.91667824 -.01068765  00000-0 -33829-1 0  9995,2 52853  53.2175  64.2344 0001468  45.0884 323.2097 15.34984655  1309,6839.103,93.812,461.972,459.964,0.0
52853.0,STARLINK-4189,PAYLOAD,2022-08-26 06:00:00,15.34224969,0.0001401,53.2175,62.6737,47.4678,3.3784,-0.034661,-0.01068708,0.0,0 STARLINK-4189,1 52853U 22062Z   22238.25001157 -.01068708  00000-0 -34661-1 0  9996,2 52853  53.2175  62.6737 0001401  47.4678   3.3784 15.34224969 11430,6841.361,93.858,464.184,462.267,0.0
52853.0,STARLINK-4189,PAYLOAD,2022-08-26 14:00:01,15.33464879,0.0001554999999999,53.2176,61.1164,46.7193,45.8251,-0.035456,-0.01067212,0.0,0 STARLINK-4189,1 52853U 22062Z   22238.58335648 -.01067212  00000-0 -35456-1 0  9999,2 52853  53.2176  61.1164 0001555  46.7193  45.8251 15.33464879  1303,6843.621,93.905,466.55,464.422,0.0
52853.0,STARLINK-4189,PAYLOAD,2022-08-26 22:00:00,15.32703049,0.0001665,53.2176,59.5629,45.6773,87.5245,-0.036183,-0.01063441,0.0,0 STARLINK-4189,1 52853U 22062Z   22238.91667824 -.01063441  00000-0 -36183-1 0  9998,2 52853  53.2176  59.5629 0001665  45.6773  87.5245 15.32703049  1304,6845.889,93.952,468.893,466.614,0.0
52853.0,STARLINK-4189,PAYLOAD,2022-08-27 14:00:01,15.31185301,0.0001716,53.2177,56.4561,46.2592,165.6477,-0.0380089999999999,-0.01064843,0.0,0 STARLINK-4189,1 52853U 22062Z   22239.58334491 -.01064843  00000-0 -38009-1 0  9999,2 52853  53.2177  56.4561 0001716  46.2592 165.6477 15.31185301  1308,6850.4119999999975,94.045,473.452,471.101,0.0
52853.0,STARLINK-4189,PAYLOAD,2022-08-27 22:00:00,15.30423895,0.0001431,53.2175,54.9075,62.5626,187.3276,-0.038787,-0.01061314,0.0,0 STARLINK-4189,1 52853U 22062Z   22239.91667824 -.01061314  00000-0 -38787-1 0  9998,2 52853  53.2175  54.9075 0001431  62.5626 187.3276 15.30423895  1302,6852.684,94.092,475.529,473.568,0.0
52853.0,STARLINK-4189,PAYLOAD,2022-08-28 14:00:01,15.28908196,0.0001554,53.2177,51.8115,43.2082,279.9105,-0.040881,-0.01066724,0.0,0 STARLINK-4189,1 52853U 22062Z   22240.58334491 -.01066724  00000-0 -40881-1 0  9992,2 52853  53.2177  51.8115 0001554  43.2082 279.9105 15.28908196  1301,6857.212,94.185,480.142,478.011,0.0
52853.0,STARLINK-4189,PAYLOAD,2022-08-28 22:00:00,15.28146577,0.0001304,53.2174,50.2683,56.9265,301.4376,-0.0417,-0.01063103,0.0,0 STARLINK-4189,1 52853U 22062Z   22240.91667824 -.01063103  00000-0 -41700-1 0  9997,2 52853  53.2174  50.2683 0001304  56.9265 301.4376 15.28146577  1306,6859.49,94.232,482.25,480.461,0.0
52853.0,STARLINK-4189,PAYLOAD,2022-08-29 14:00:01,15.26629873,0.0001617,53.2176,47.1832,41.9553,24.1619,-0.043867,-0.01067286,0.0,0 STARLINK-4189,1 52853U 22062Z   22241.58334491 -.01067286  00000-0 -43867-1 0  9994,2 52853  53.2176  47.1832 0001617  41.9553  24.1619 15.26629873  1302,6864.033,94.325,487.008,484.788,0.0
52853.0,STARLINK-4189,PAYLOAD,2022-08-29 22:00:00,15.258661800000002,0.0001543,53.2173,45.6451,48.7541,49.8714,-0.044568,-0.01060071,0.0,0 STARLINK-4189,1 52853U 22062Z   22241.91667824 -.01060071  00000-0 -44568-1 0  9994,2 52853  53.2173  45.6451 0001543  48.7541  49.8714 15.25866180  1302,6866.323,94.373,489.247,487.128,0.0
